[{"OBJECT_NAME":"UNIFORM 1","OBJECT_ID":"2014-029B","EPOCH":"2026-03-09T20:40:30.377280","MEAN_MOTION":14.95353458,"ECCENTRICITY":0.00039155,"INCLINATION":97.8,"RA_OF_ASC_NODE":166.6615,"ARG_OF_PERICENTER":280.7355,"MEAN_ANOMALY":79.3425,"EPHEMERIS_TYPE":0,"CLASSIFICATION_TYPE":"U","NORAD_CAT_ID":39767,"ELEMENT_SET_NO":999,"REV_AT_EPOCH":63937,"BSTAR":0.00032279385,"MEAN_MOTION_DOT":3.504e-5,"MEAN_MOTION_DDOT":0},{"OBJECT_NAME":"CZ-6A DEB","OBJECT_ID":"2022-151UT","EPOCH":"2026-03-09T17:50:02.810976","MEAN_MOTION":14.9898329,"ECCENTRICITY":0.00453187,"INCLINATION":98.6222,"RA_OF_ASC_NODE":145.5138,"ARG_OF_PERICENTER":180.208,"MEAN_ANOMALY":179.9129,"EPHEMERIS_TYPE":0,"CLASSIFICATION_TYPE":"U","NORAD_CAT_ID":55003,"ELEMENT_SET_NO":999,"REV_AT_EPOCH":17561,"BSTAR":0.0047870048,"MEAN_MOTION_DOT":0.00059614,"MEAN_MOTION_DDOT":0}]
